ONEWEB-0228             
1 48780U 21045P   24018.63716563 -.00000100  00000+0 -30087-3 0  9994
2 48780  87.8969  74.4648 0001933 102.8714 257.2632 13.15550359128553
